IRIDIUM 150             
1 43257U 18030J   24332.62778310  .00000348  00000+0  11732-3 0  9992
2 43257  86.3987 167.2920 0001769  83.5528 276.5869 14.34222698348958
IRIDIUM 143             
1 43258U 18030K   24332.25990190 -.00000133  00000+0 -54482-4 0  9998
2 43258  86.3996 167.5164 0001532  72.1846 287.9516 14.34216075348831
IRIDIUM 161             
1 43478U 18047C   24332.73604809  .00000576  00000+0  16537-3 0  9999
2 43478  86.4469 325.1952 0002258  84.9013 275.2445 14.43282742343437
IRIDIUM 152             
1 43479U 18047D   24332.86053530  .00000150  00000+0  46658-4 0  9999
2 43479  86.3943 325.0031 0002469  89.0104 271.1375 14.34218599341313
IRIDIUM 147             
1 43480U 18047E   24332.72734071 -.00000060  00000+0 -28420-4 0  9991
2 43480  86.3943 325.0535 0002369  95.5586 264.5880 14.34216459341296
IRIDIUM 110             
1 43481U 18047F   24332.73368467 -.00000061  00000+0 -28786-4 0  9991
2 43481  86.3946 325.1279 0002632  90.0871 270.0626 14.34216844341283
IRIDIUM 162             
1 43482U 18047G   24332.72975701  .00000564  00000+0  16161-3 0  9995
2 43482  86.4469 325.0958 0002506  87.8995 272.2493 14.43279085343429
IRIDIUM 160             
1 43569U 18061A   24332.60974400  .00000970  00000+0  33923-3 0  9995
2 43569  86.3937 293.5360 0002142  97.4204 262.7235 14.34213954332166
